[{"OBJECT_NAME":"STARLINK-6052","OBJECT_ID":"2023-078AC","EPOCH":"2026-03-09T23:30:28.564992","MEAN_MOTION":14.98330465,"ECCENTRICITY":0.0002634,"INCLINATION":70.0007,"RA_OF_ASC_NODE":343.728,"ARG_OF_PERICENTER":269.1521,"MEAN_ANOMALY":90.9337,"EPHEMERIS_TYPE":0,"CLASSIFICATION_TYPE":"U","NORAD_CAT_ID":56793,"ELEMENT_SET_NO":999,"REV_AT_EPOCH":15272,"BSTAR":-1.9674739e-5,"MEAN_MOTION_DOT":-3.28e-6,"MEAN_MOTION_DDOT":0},{"OBJECT_NAME":"PEGASUS DEB","OBJECT_ID":"1994-029AGC","EPOCH":"2026-03-05T08:27:18.984384","MEAN_MOTION":14.52218034,"ECCENTRICITY":0.0236757,"INCLINATION":81.9426,"RA_OF_ASC_NODE":296.4283,"ARG_OF_PERICENTER":114.8689,"MEAN_ANOMALY":247.7324,"EPHEMERIS_TYPE":0,"CLASSIFICATION_TYPE":"U","NORAD_CAT_ID":39929,"ELEMENT_SET_NO":999,"REV_AT_EPOCH":61587,"BSTAR":0.0010545,"MEAN_MOTION_DOT":6.215e-5,"MEAN_MOTION_DDOT":0}]
